{"format":"tle-catalog-v1","generatedAt":"2026-06-25T16:01:17.978Z","count":6895,"entries":[{"name":"CZ-7A R/B","line1":"1 69236U 26116B   26175.59599755  .00131090 -52341-6  19947-3 0  9996","line2":"2 69236  19.5722 136.8787 7179962 201.2039  99.0746  2.48048591   727"},{"name":"STARLINK-37201","line1":"1 69220U 26115K   26176.25002315 -.00022118  00000+0 -68483-3 0  9991","line2":"2 69220  97.2849 193.5719 0001424 129.3517  47.1910 15.33442200  5982"},{"name":"STARLINK-37557","line1":"1 69231U 26115W   26176.29240793  .00046309  00000+0  84755-3 0  9997","line2":"2 69231  97.2852 193.5892 0000869  87.5159 272.6191 15.49209131  5920"},{"name":"STARLINK-37558","line1":"1 69239U 26117B   26176.26838947  .00566594  00000+0  26508-2 0  9992","line2":"2 69239  53.1571 203.0519 0000980 246.1991 113.8930 15.81192189  4253"},{"name":"STARLINK-37613","line1":"1 69211U 26115A   26176.01356454  .00073360  00000+0  13369-2 0  9996","line2":"2 69211  97.2838 193.2006 0001392 105.9761 254.1644 15.49213016  5871"},{"name":"STARLINK-37618","line1":"1 69228U 26115T   26175.09967216  .00040976  00000+0  80083-3 0  9990","line2":"2 69228  97.2933 192.4620 0005074 162.6713 197.4712 15.47331250  5746"},{"name":"STARLINK-37620","line1":"1 69214U 26115D   26176.28620587  .00014380  00000+0  26520-3 0  9990","line2":"2 69214  97.2859 193.4438 0000312 355.8487   4.2761 15.49229985  5911"},{"name":"STARLINK-37665","line1":"1 69238U 26117A   26176.26981129  .00342535  00000+0  17620-2 0  9994","line2":"2 69238  53.1566 203.0612 0004346 165.3580 194.7569 15.79707206  4251"},{"name":"STARLINK-37679","line1":"1 69229U 26115U   26176.20413796 -.00378741  00000+0 -10610-1 0  9997","line2":"2 69229  97.2853 193.5557 0001823  48.5663 311.5738 15.38123077  5915"},{"name":"STARLINK-37680","line1":"1 69240U 26117C   26176.26633484  .00223958  00000+0  11068-2 0  9992","line2":"2 69240  53.1568 203.0377 0001294 127.1799 232.9343 15.80917743  4257"},{"name":"STARLINK-37700","line1":"1 69215U 26115E   26176.00124431  .00050793  00000+0  92819-3 0  9990","line2":"2 69215  97.2834 193.0649 0000632  99.4896 260.6427 15.49232159  5863"},{"name":"STARLINK-37713","line1":"1 69212U 26115B   26176.04526510  .00032230  00000+0  89018-3 0  9998","line2":"2 69212  97.2849 193.3137 0001412 102.9059 257.2344 15.36995310  5882"},{"name":"STARLINK-37716","line1":"1 69213U 26115C   26176.25002315 -.00010341  00000+0 -31894-3 0  9994","line2":"2 69213  97.2850 193.5228 0001927 108.2754 308.4139 15.33393180  5986"},{"name":"STARLINK-37724","line1":"1 69218U 26115H   26176.25002315 -.00004795  00000+0 -14642-3 0  9997","line2":"2 69218  97.2849 193.5669 0001231 106.3242  55.3543 15.33418353  5984"},{"name":"STARLINK-37725","line1":"1 69224U 26115P   26176.25002315  .00000088  00000+0  45889-5 0  9992","line2":"2 69224  97.2851 193.5914 0000813  74.6642 150.1328 15.36974621  5986"},{"name":"STARLINK-37728","line1":"1 69221U 26115L   26176.25002315 -.00004447  00000+0 -13561-3 0  9994","line2":"2 69221  97.2849 193.5855 0001107  74.1826 132.5032 15.33416272  5986"},{"name":"STARLINK-37736","line1":"1 69226U 26115R   26176.25002315 -.00020721  00000+0 -64082-3 0  9996","line2":"2 69226  97.2852 193.6150 0001282  76.0227 205.5284 15.33467009  5988"},{"name":"STARLINK-37737","line1":"1 69227U 26115S   26176.25002315 -.00018753  00000+0 -58016-3 0  9999","line2":"2 69227  97.2851 193.6276 0001669  91.8171 219.8522 15.33434594  6009"},{"name":"STARLINK-37739","line1":"1 69233U 26115Y   26176.20533190 -.00457290  00000+0 -96005-2 0  9993","line2":"2 69233  97.2850 193.5550 0004108 329.4129  30.6881 15.47009065  5915"},{"name":"STARLINK-37742","line1":"1 69241U 26117D   26176.01204756  .00039944  00000+0  20470-3 0  9990","line2":"2 69241  53.1570 204.2962 0001343  37.5744 322.5372 15.80902296  4214"},{"name":"STARLINK-37745","line1":"1 69232U 26115X   26176.25002315 -.00018879  00000+0 -58410-3 0  9992","line2":"2 69232  97.2852 193.6599 0001163 115.8823 270.7894 15.33434714  5982"},{"name":"STARLINK-37746","line1":"1 69230U 26115V   26176.20449065 -.00480459  00000+0 -10984-1 0  9991","line2":"2 69230  97.2858 193.5558 0001751 348.9946  11.1265 15.44625885  5913"},{"name":"STARLINK-37755","line1":"1 69234U 26115Z   26176.25002315 -.02593780  00000+0 -37985-1 0  9997","line2":"2 69234  97.2838 194.0378 0001742  97.4987 106.9675 15.59409117  5981"},{"name":"STARLINK-37758","line1":"1 69219U 26115J   26176.25002315 -.00020644  00000+0 -63900-3 0  9990","line2":"2 69219  97.2849 193.5771 0001346  82.2725 109.3921 15.33437728  5981"},{"name":"STARLINK-37759","line1":"1 69223U 26115N   26176.07706882 -.00515059  00000+0 -15435-1 0  9992","line2":"2 69223  97.2858 193.4228 0000830  70.5163 289.6171 15.36591321  5897"},{"name":"STARLINK-37760","line1":"1 69222U 26115M   26176.25002315 -.00021525  00000+0 -66631-3 0  9997","line2":"2 69222  97.2852 193.5903 0000808  83.8251 137.8118 15.33445641  5986"},{"name":"STARLINK-37763","line1":"1 69217U 26115G   26176.25002315 -.00020920  00000+0 -64740-3 0  9998","line2":"2 69217  97.2848 193.5563 0001741  63.0284  83.5236 15.33446868  5980"},{"name":"STARLINK-37766","line1":"1 69216U 26115F   26176.25002315 -.00002977  00000+0 -90003-4 0  9991","line2":"2 69216  97.2849 193.5527 0001265  94.3220  37.3403 15.33421085  5985"},{"name":"STARLINK-37770","line1":"1 69225U 26115Q   26176.25002315 -.00022140  00000+0 -68550-3 0  9996","line2":"2 69225  97.2852 193.6084 0000652  64.8922 201.7559 15.33444039  5981"},{"name":"TJS-24","line1":"1 69235U 26116A   26176.16919925 -.00000222  00000+0  00000+0 0  9990","line2":"2 69235   0.0387 117.0776 0000523 323.7164 343.7177  1.00271379   305"}]}