OBJECT_NAME,OBJECT_ID,EPOCH,MEAN_MOTION,ECCENTRICITY,INCLINATION,RA_OF_ASC_NODE,ARG_OF_PERICENTER,MEAN_ANOMALY,EPHEMERIS_TYPE,CLASSIFICATION_TYPE,NORAD_CAT_ID,ELEMENT_SET_NO,REV_AT_EPOCH,BSTAR,MEAN_MOTION_DOT,MEAN_MOTION_DDOT
STARLINK-37613,2026-115A,2026-06-25T00:19:31.976256,15.49213016,.00013923,97.2838,193.2006,105.9761,254.1644,0,U,69211,999,587,.13368677E-2,.7336E-3,0
STARLINK-37713,2026-115B,2026-06-25T01:05:10.904640,15.36995310,.00014122,97.2849,193.3137,102.9059,257.2344,0,U,69212,999,588,.89018135E-3,.3223E-3,0
STARLINK-37716,2026-115C,2026-06-25T06:00:02.000160,15.33393180,.00019274,97.2850,193.5228,108.2754,308.4139,0,U,69213,999,598,-.31893675E-3,-.10341E-3,0
STARLINK-37620,2026-115D,2026-06-25T06:52:08.187168,15.49229985,.00003126,97.2859,193.4438,355.8487,4.2761,0,U,69214,999,591,.2652012E-3,.1438E-3,0
STARLINK-37700,2026-115E,2026-06-25T00:01:47.508384,15.49232159,.00006327,97.2834,193.0649,99.4896,260.6427,0,U,69215,999,586,.92818679E-3,.50793E-3,0
STARLINK-37766,2026-115F,2026-06-25T06:00:02.000160,15.33421085,.00012655,97.2849,193.5527,94.3220,37.3403,0,U,69216,999,598,-.90002981E-4,-.2977E-4,0
STARLINK-37763,2026-115G,2026-06-25T06:00:02.000160,15.33446868,.00017413,97.2848,193.5563,63.0284,83.5236,0,U,69217,999,598,-.64740479E-3,-.2092E-3,0
STARLINK-37724,2026-115H,2026-06-25T06:00:02.000160,15.33418353,.00012316,97.2849,193.5669,106.3242,55.3543,0,U,69218,999,598,-.14641688E-3,-.4795E-4,0
STARLINK-37758,2026-115J,2026-06-25T06:00:02.000160,15.33437728,.00013462,97.2849,193.5771,82.2725,109.3921,0,U,69219,999,598,-.63900296E-3,-.20644E-3,0
STARLINK-37201,2026-115K,2026-06-25T06:00:02.000160,15.33442200,.00014245,97.2849,193.5719,129.3517,47.1910,0,U,69220,999,598,-.68482549E-3,-.22118E-3,0
STARLINK-37728,2026-115L,2026-06-25T06:00:02.000160,15.33416272,.00011072,97.2849,193.5855,74.1826,132.5032,0,U,69221,999,598,-.13561268E-3,-.4447E-4,0
STARLINK-37760,2026-115M,2026-06-25T06:00:02.000160,15.33445641,.00008089,97.2852,193.5903,83.8251,137.8118,0,U,69222,999,598,-.66630782E-3,-.21525E-3,0
STARLINK-37759,2026-115N,2026-06-25T01:50:58.746048,15.36591321,.00008308,97.2858,193.4228,70.5163,289.6171,0,U,69223,999,589,-.15434931E-1,-.515059E-2,0
STARLINK-37725,2026-115P,2026-06-25T06:00:02.000160,15.36974621,.00008133,97.2851,193.5914,74.6642,150.1328,0,U,69224,999,598,.458886E-5,.88E-6,0
STARLINK-37770,2026-115Q,2026-06-25T06:00:02.000160,15.33444039,.00006526,97.2852,193.6084,64.8922,201.7559,0,U,69225,999,598,-.68549517E-3,-.2214E-3,0
STARLINK-37736,2026-115R,2026-06-25T06:00:02.000160,15.33467009,.00012824,97.2852,193.6150,76.0227,205.5284,0,U,69226,999,598,-.6408245E-3,-.20721E-3,0
STARLINK-37737,2026-115S,2026-06-25T06:00:02.000160,15.33434594,.00016691,97.2851,193.6276,91.8171,219.8522,0,U,69227,999,600,-.5801633E-3,-.18753E-3,0
STARLINK-37618,2026-115T,2026-06-24T02:23:31.674624,15.47331250,.00050741,97.2933,192.4620,162.6713,197.4712,0,U,69228,999,574,.80082947E-3,.40976E-3,0
STARLINK-37679,2026-115U,2026-06-25T04:53:57.519744,15.38123077,.00018233,97.2853,193.5557,48.5663,311.5738,0,U,69229,999,591,-.10609832E-1,-.378741E-2,0
STARLINK-37746,2026-115V,2026-06-25T04:54:27.992160,15.44625885,.00017516,97.2858,193.5558,348.9946,11.1265,0,U,69230,999,591,-.10984444E-1,-.480459E-2,0
STARLINK-37557,2026-115W,2026-06-25T07:01:04.045152,15.49209131,.00008694,97.2852,193.5892,87.5159,272.6191,0,U,69231,999,592,.84754539E-3,.46309E-3,0
STARLINK-37745,2026-115X,2026-06-25T06:00:02.000160,15.33434714,.00011637,97.2852,193.6599,115.8823,270.7894,0,U,69232,999,598,-.58409828E-3,-.18879E-3,0
STARLINK-37739,2026-115Y,2026-06-25T04:55:40.676160,15.47009065,.00041088,97.2850,193.5550,329.4129,30.6881,0,U,69233,999,591,-.96004991E-2,-.45729E-2,0
STARLINK-37755,2026-115Z,2026-06-25T06:00:02.000160,15.59409117,.00017422,97.2838,194.0378,97.4987,106.9675,0,U,69234,999,598,-.37984746E-1,-.259378E-1,0
TJS-24,2026-116A,2026-06-25T04:03:38.815200,1.00271379,.0000523,0.0387,117.0776,323.7164,343.7177,0,U,69235,999,30,0,-.222E-5,0
CZ-7A R/B,2026-116B,2026-06-24T14:18:14.188320,2.48048591,.71799628,19.5722,136.8787,201.2039,99.0746,0,U,69236,999,72,.19947405E-3,.13109E-2,-.523408E-6
STARLINK-37665,2026-117A,2026-06-25T06:28:31.695456,15.79707206,.00043463,53.1566,203.0612,165.3580,194.7569,0,U,69238,999,425,.17620391E-2,.342535E-2,0
STARLINK-37558,2026-117B,2026-06-25T06:26:28.850208,15.81192189,.00009805,53.1571,203.0519,246.1991,113.8930,0,U,69239,999,425,.2650771E-2,.566594E-2,0
STARLINK-37680,2026-117C,2026-06-25T06:23:31.330176,15.80917743,.00012949,53.1568,203.0377,127.1799,232.9343,0,U,69240,999,425,.11067541E-2,.223958E-2,0
STARLINK-37742,2026-117D,2026-06-25T00:17:20.909184,15.80902296,.00013431,53.1570,204.2962,37.5744,322.5372,0,U,69241,999,421,.20470317E-3,.39944E-3,0
